NOAA 1 [-]              
1 04793U 70106A   20114.44440670 -.00000032  00000-0  79521-4 0  9998
2 04793 101.6594 183.4785 0031843  47.4795 323.4217 12.53993909259673
NOAA 2 (ITOS-D) [-]     
1 06235U 72082A   20113.89728729 -.00000038  00000-0  49835-4 0  9999
2 06235 101.8461  83.8003 0004277 135.4645 279.2857 12.53123118173579
NOAA 3 [-]              
1 06920U 73086A   20114.53017775 -.00000053  00000-0 -57226-4 0  9990
2 06920 102.1012  86.1874 0006164 302.6833 165.6704 12.40341671103666
NOAA 4 [-]              
1 07529U 74089A   20114.76465014 -.00000056  00000-0 -69136-4 0  9994
2 07529 101.8037  84.7693 0009020 166.6244 256.5368 12.53140884 78503
NOAA 5 [-]              
1 09057U 76077A   20113.72610279 -.00000053  00000-0 -66038-4 0  9996
2 09057 101.9816  82.9687 0010020 150.2635  23.3652 12.37751770976748
TIROS N [P]             
1 11060U 78096A   20114.45193521  .00000002  00000-0  22406-4 0  9996
2 11060  98.7443 173.1529 0009721 236.0614 123.9638 14.18264607360576
NOAA 6 [P]              
1 11416U 79057A   20113.95991172  .00000036  00000-0  29029-4 0  9996
2 11416  98.6562 112.8058 0011377  59.2466 300.9837 14.33574399129186
NOAA 7 [-]              
1 12553U 81059A   20114.48410410 -.00000022  00000-0  11975-4 0  9991
2 12553  99.0867 133.8811 0011515 179.4844 180.6343 14.17274121  6823
NOAA 8 [-]              
1 13923U 83022A   20114.51222334 -.00000012  00000-0  12850-4 0  9997
2 13923  98.6162 100.3984 0015025 351.9364   8.1573 14.28699878930582
NOAA 9 [P]              
1 15427U 84123A   20114.49418637  .00000007  00000-0  26300-4 0  9999
2 15427  98.9366  68.5988 0013945 231.4388 236.6307 14.16095309825748
NOAA 10 [-]             
1 16969U 86073A   20114.49463837 -.00000008  00000-0  14069-4 0  9990
2 16969  98.5011 107.4598 0013397  95.3881  14.7701 14.28095444749054
NOAA 11 [-]             
1 19531U 88089A   20114.81077545 -.00000011  00000-0  15437-4 0  9994
2 19531  98.4175 137.2873 0010020 282.5084  77.4970 14.15254137630082
NOAA 12 [-]             
1 21263U 91032A   20114.16074073 -.00000010  00000-0  13628-4 0  9991
2 21263  98.5082 125.7214 0014733 115.2702 245.0006 14.25912388504814
NOAA 13 [-]             
1 22739U 93050A   20114.10146332  .00000019  00000-0  32216-4 0  9996
2 22739  98.4585 124.9944 0010683  76.2701 283.9660 14.12752558376165
NOAA 14 [-]             
1 23455U 94089A   20114.19600392  .00000002  00000-0  22662-4 0  9991
2 23455  98.5496 168.0734 0010455  62.5894 297.6342 14.14143261305727
NOAA 15 [B]             
1 25338U 98030A   20114.49294120  .00000033  00000-0  32282-4 0  9997
2 25338  98.7221 139.8097 0011440  66.1236 294.1141 14.25960133141409
NOAA 16 [-]             
1 26536U 00055A   20114.18745416  .00000018  00000-0  32864-4 0  9992
2 26536  98.7363 184.5820 0009568 240.7579 119.2637 14.13250017306439
NOAA 17 [-]             
1 27453U 02032A   20114.18774663 -.00000007  00000-0  15297-4 0  9994
2 27453  98.5795  61.9268 0012523  42.6356 317.5793 14.25063626927016
NOAA 18 [B]             
1 28654U 05018A   20114.19501423  .00000069  00000-0  61723-4 0  9990
2 28654  99.0493 170.0925 0014599  31.1887 329.0147 14.12504823769111
NOAA 19 [+]             
1 33591U 09005A   20114.26581378  .00000018  00000-0  35368-4 0  9991
2 33591  99.1968 118.1757 0013228 227.7974 132.2074 14.12404108577349
SUOMI NPP [+]           
1 37849U 11061A   20114.22129753 -.00000009  00000-0  16293-4 0  9994
2 37849  98.7333  52.8951 0001462  77.9163  26.0268 14.19549338439795
NOAA 20 [+]             
1 43013U 17073A   20114.44822630 -.00000003  00000-0  19159-4 0  9999
2 43013  98.7145  53.2583 0001403  99.4473 260.6862 14.19551950125858
